NORAD_CAT_ID,OBJECT_NAME,OBJECT_TYPE,EPOCH,MEAN_MOTION,ECCENTRICITY,INCLINATION,RA_OF_ASC_NODE,ARG_OF_PERICENTER,MEAN_ANOMALY,BSTAR,MEAN_MOTION_DOT,MEAN_MOTION_DDOT,TLE_LINE0,TLE_LINE1,TLE_LINE2,SEMIMAJOR_AXIS,PERIOD,APOGEE,PERIGEE,DECAYED
52268.0,STARLINK-3746,PAYLOAD,2022-11-27 08:05:17,15.08850264,0.00024,53.2163,88.7465,53.9616,306.1598,-0.00019422,-3.379e-05,0.0,0 STARLINK-3746,1 52268U 22041H   22331.33701050 -.00003379  00000-0 -19422-3 0  9997,2 52268  53.2163  88.7465 0002400  53.9616 306.1598 15.08850264 34670,6917.849,95.437,541.374,538.054,0.0
52268.0,STARLINK-3746,PAYLOAD,2022-11-27 09:40:41,15.08841302,0.0001725,53.2201,88.4501,37.6415,322.4698,4.7997e-05,4.76e-06,0.0,0 STARLINK-3746,1 52268U 22041H   22331.40325452  .00000476  00000-0  47997-4 0  9995,2 52268  53.2201  88.4501 0001725  37.6415 322.4698 15.08841302 33467,6917.876,95.437,540.935,538.548,0.0
52268.0,STARLINK-3746,PAYLOAD,2022-11-27 17:37:37,15.08850377,0.0001891,53.2179,86.9618,52.1073,308.0089,-0.00025123,-4.285e-05,0.0,0 STARLINK-3746,1 52268U 22041H   22331.73445689 -.00004285  00000-0 -25123-3 0  9996,2 52268  53.2179  86.9618 0001891  52.1073 308.0089 15.08850377 34736,6917.849,95.437,541.0219999999998,538.406,0.0
52268.0,STARLINK-3746,PAYLOAD,2022-11-28 14:17:38,15.08837385,0.000197,53.219,83.09700000000002,46.3393,313.7762,-5.9757e-05,-1.239e-05,0.0,0 STARLINK-3746,1 52268U 22041H   22332.59558090 -.00001239  00000-0 -59757-4 0  9999,2 52268  53.2190  83.0970 0001970  46.3393 313.7762 15.08837385 34865,6917.888000000001,95.438,541.116,538.391,0.0
52268.0,STARLINK-3746,PAYLOAD,2022-11-29 07:46:53,15.08795602,0.0002161,53.2186,79.8261,46.0397,314.0773,0.00070712,0.0001097,0.0,0 STARLINK-3746,1 52268U 22041H   22333.32422495  .00010970  00000-0  70712-3 0  9993,2 52268  53.2186  79.8261 0002161  46.0397 314.0773 15.08795602 34973,6918.016,95.44,541.376,538.386,0.0
52268.0,STARLINK-3746,PAYLOAD,2022-11-29 12:33:01,15.08844882,0.0001949,53.2187,78.934,43.4566,316.658,0.00015146,2.123e-05,0.0,0 STARLINK-3746,1 52268U 22041H   22333.52293059  .00002123  00000-0  15146-3 0  9998,2 52268  53.2187  78.9340 0001949  43.4566 316.6580 15.08844882 35008,6917.865,95.437,541.0790000000002,538.382,0.0
52268.0,STARLINK-3746,PAYLOAD,2022-11-30 07:37:40,15.088287,0.000214,53.2189,75.366,42.8507,317.2652,6.7861e-05,7.92e-06,0.0,0 STARLINK-3746,1 52268U 22041H   22334.31782651  .00000792  00000-0  67861-4 0  9999,2 52268  53.2189  75.3660 0002140  42.8507 317.2652 15.08828700 35129,6917.915,95.438,541.26,538.299,0.0
52268.0,STARLINK-3746,PAYLOAD,2022-11-30 13:59:12,15.08828699,0.0002097,53.2189,74.1766,44.0141,316.1018,5.8552e-05,6.43e-06,0.0,0 STARLINK-3746,1 52268U 22041H   22334.58278835  .00000643  00000-0  58552-4 0  9994,2 52268  53.2189  74.1766 0002097  44.0141 316.1018 15.08828699 33941,6917.915,95.438,541.231,538.3290000000002,0.0
52268.0,STARLINK-3746,PAYLOAD,2022-12-01 05:53:03,15.08852985,0.00021,53.2183,71.2024,53.8593,306.2593,-6.9368e-05,-1.393e-05,0.0,0 STARLINK-3746,1 52268U 22041H   22335.24517974 -.00001393  00000-0 -69368-4 0  9990,2 52268  53.2183  71.2024 0002100  53.8593 306.2593 15.08852985 34049,6917.840999999999,95.437,541.158,538.253,0.0
52268.0,STARLINK-3746,PAYLOAD,2022-12-01 17:00:45,15.08840284,0.0002061,53.2187,69.1207,39.3706,320.7435,-1.5951e-05,-5.42e-06,0.0,0 STARLINK-3746,1 52268U 22041H   22335.70886514 -.00000542  00000-0 -15951-4 0  9994,2 52268  53.2187  69.1207 0002061  39.3706 320.7435 15.08840284 35331,6917.88,95.438,541.17,538.319,0.0
52268.0,STARLINK-3746,PAYLOAD,2022-12-02 07:19:14,15.08837153,0.0002146,53.221,66.4467,43.2658,316.8503,0.00013668,1.888e-05,0.0,0 STARLINK-3746,1 52268U 22041H   22336.30502415  .00001888  00000-0  13668-3 0  9990,2 52268  53.2210  66.4467 0002146  43.2658 316.8503 15.08837153 34208,6917.889,95.438,541.239,538.27,0.0
52268.0,STARLINK-3746,PAYLOAD,2022-12-02 23:13:05,15.08848105,0.000229,53.2204,63.4721,40.7457,319.3706,-4.0021e-05,-9.25e-06,0.0,0 STARLINK-3746,1 52268U 22041H   22336.96742177 -.00000925  00000-0 -40021-4 0  9990,2 52268  53.2204  63.4721 0002290  40.7457 319.3706 15.08848105 35528,6917.856,95.437,541.305,538.136,0.0
52268.0,STARLINK-3746,PAYLOAD,2022-12-03 10:20:47,15.08835891,0.0002306,53.2208,61.3909,43.4905,316.6269,5.6076e-05,6.04e-06,0.0,0 STARLINK-3746,1 52268U 22041H   22337.43110843  .00000604  00000-0  56076-4 0  9991,2 52268  53.2208  61.3909 0002306  43.4905 316.6269 15.08835891 35592,6917.893,95.438,541.3530000000002,538.163,0.0
52268.0,STARLINK-3746,PAYLOAD,2022-12-03 11:56:10,15.08836901,0.0002056,53.2181,61.0919,40.8949,319.2197,5.4965e-05,5.87e-06,0.0,0 STARLINK-3746,1 52268U 22041H   22337.49734665  .00000587  00000-0  54965-4 0  9996,2 52268  53.2181  61.0919 0002056  40.8949 319.2197 15.08836901 34389,6917.89,95.438,541.177,538.3330000000002,0.0
52268.0,STARLINK-3746,PAYLOAD,2022-12-03 15:06:57,15.08835626,0.000204,53.2182,60.4973,40.27,319.8443,4.1446e-05,3.71e-06,0.0,0 STARLINK-3746,1 52268U 22041H   22337.62982799  .00000371  00000-0  41446-4 0  9995,2 52268  53.2182  60.4973 0002040  40.2700 319.8443 15.08835626 34401,6917.894,95.438,541.17,538.3480000000002,0.0
52268.0,STARLINK-3746,PAYLOAD,2022-12-04 11:46:58,15.08833558,0.0002326,53.2182,56.6326,55.0114,305.1097,9.505e-05,1.224e-05,0.0,0 STARLINK-3746,1 52268U 22041H   22338.49094955  .00001224  00000-0  95050-4 0  9997,2 52268  53.2182  56.6326 0002326  55.0114 305.1097 15.08833558 34539,6917.9,95.438,541.374,538.156,0.0
52268.0,STARLINK-3746,PAYLOAD,2022-12-04 16:33:06,15.08840406,0.0002186,53.2186,55.7408,48.2883,311.8296,0.00013476,1.857e-05,0.0,0 STARLINK-3746,1 52268U 22041H   22338.68966432  .00001857  00000-0  13476-3 0  9999,2 52268  53.2186  55.7408 0002186  48.2883 311.8296 15.08840406 35788,6917.879,95.438,541.256,538.232,0.0
52268.0,STARLINK-3746,PAYLOAD,2022-12-05 11:37:44,15.08847709,0.0002099,53.2185,52.1726,39.9828,320.1318,0.00017902,2.563e-05,0.0,0 STARLINK-3746,1 52268U 22041H   22339.48453813  .00002563  00000-0  17902-3 0  9995,2 52268  53.2185  52.1726 0002099  39.9828 320.1318 15.08847709 34689,6917.857,95.437,541.174,538.27,0.0
52268.0,STARLINK-3746,PAYLOAD,2022-12-06 05:06:59,15.08841798,0.0002038,53.2195,48.9012,36.5261,323.587,0.000118,1.59e-05,0.0,0 STARLINK-3746,1 52268U 22041H   22340.21318291  .00001590  00000-0  11800-3 0  9998,2 52268  53.2195  48.9012 0002038  36.5261 323.5870 15.08841798 36019,6917.875,95.437,541.15,538.33,0.0
52268.0,STARLINK-3746,PAYLOAD,2022-12-06 08:17:45,15.0884549,0.000206,53.2197,48.3069,36.1296,323.9835,3.4708e-05,2.64e-06,0.0,0 STARLINK-3746,1 52268U 22041H   22340.34566285  .00000264  00000-0  34708-4 0  9990,2 52268  53.2197  48.3069 0002060  36.1296 323.9835 15.08845490 34810,6917.864000000001,95.437,541.154,538.304,0.0
52268.0,STARLINK-3746,PAYLOAD,2022-12-06 16:14:41,15.08834895,0.000241,53.2192,46.8206,32.1224,327.9915,-5.8828e-05,-1.224e-05,0.0,0 STARLINK-3746,1 52268U 22041H   22340.67687192 -.00001224  00000-0 -58828-4 0  9995,2 52268  53.2192  46.8206 0002410  32.1224 327.9915 15.08834895 36088,6917.896,95.438,541.428,538.094,0.0
52268.0,STARLINK-3746,PAYLOAD,2022-12-07 16:05:28,15.08838154,0.0002247,53.2186,42.3588,31.9801,328.1327,-6.2551e-05,-1.284e-05,0.0,0 STARLINK-3746,1 52268U 22041H   22341.67047243 -.00001284  00000-0 -62551-4 0  9997,2 52268  53.2186  42.3588 0002247  31.9801 328.1327 15.08838154 35015,6917.886,95.438,541.305,538.197,0.0
52268.0,STARLINK-3746,PAYLOAD,2022-12-08 04:48:32,15.08850884,0.0002049,53.2192,39.9815,41.519,318.5958,0.00018821,2.709e-05,0.0,0 STARLINK-3746,1 52268U 22041H   22342.20037677  .00002709  00000-0  18821-3 0  9998,2 52268  53.2192  39.9815 0002049  41.5190 318.5958 15.08850884 36316,6917.847,95.437,541.13,538.295,0.0
52268.0,STARLINK-3746,PAYLOAD,2022-12-08 11:10:05,15.08844025,0.0002125,53.2195,38.7936,38.9472,321.1673,0.00012908,1.767e-05,0.0,0 STARLINK-3746,1 52268U 22041H   22342.46534240  .00001767  00000-0  12908-3 0  9997,2 52268  53.2195  38.7936 0002125  38.9472 321.1673 15.08844025 35131,6917.868,95.437,541.203,538.263,0.0
52268.0,STARLINK-3746,PAYLOAD,2022-12-08 20:42:21,15.08873564,0.0001371,53.2186,37.0106,356.0791,4.019,0.00044413,6.794e-05,0.0,0 STARLINK-3746,1 52268U 22041H   22342.86275071  .00006794  00000-0  44413-3 0  9996,2 52268  53.2186  37.0106 0001371 356.0791   4.0190 15.08873564 36415,6917.778,95.435,540.591,538.694,0.0
52268.0,STARLINK-3746,PAYLOAD,2022-12-10 10:51:40,15.08846687,0.0002657,53.2184,29.872,37.0966,323.021,-0.00021442,-3.7e-05,0.0,0 STARLINK-3746,1 52268U 22041H   22344.45255477 -.00003700  00000-0 -21442-3 0  9994,2 52268  53.2184  29.8720 0002657  37.0966 323.0210 15.08846687 36651,6917.86,95.437,541.563,537.887,0.0
52268.0,STARLINK-3746,PAYLOAD,2022-12-11 02:45:30,15.08855424,0.0001702,53.2176,26.8942,339.2569,20.8354,-0.00015209,-2.709e-05,0.0,0 STARLINK-3746,1 52268U 22041H   22345.11493852 -.00002709  00000-0 -15209-3 0  9991,2 52268  53.2176  26.8942 0001702 339.2569  20.8354 15.08855424 36752,6917.833000000001,95.437,540.876,538.521,0.0
52268.0,STARLINK-3746,PAYLOAD,2022-12-11 09:07:04,15.08840816,0.0002161,53.2176,25.7053,43.074,317.0421,0.00014123,1.96e-05,0.0,0 STARLINK-3746,1 52268U 22041H   22345.37991075  .00001960  00000-0  14123-3 0  9999,2 52268  53.2176  25.7053 0002161  43.0740 317.0421 15.08840816 36793,6917.878000000002,95.438,541.238,538.248,0.0
52268.0,STARLINK-3746,PAYLOAD,2022-12-11 12:17:50,15.08840681,0.0002242,53.2176,25.1109,42.124,317.9924,0.00014051,1.949e-05,0.0,0 STARLINK-3746,1 52268U 22041H   22345.51239116  .00001949  00000-0  14051-3 0  9993,2 52268  53.2176  25.1109 0002242  42.1240 317.9924 15.08840681 35598,6917.878000000002,95.438,541.294,538.192,0.0
52268.0,STARLINK-3746,PAYLOAD,2022-12-12 08:57:51,15.08834205,0.0002125,53.2189,21.2461,49.4757,310.642,7.5088e-05,9.07e-06,0.0,0 STARLINK-3746,1 52268U 22041H   22346.37351780  .00000907  00000-0  75088-4 0  9991,2 52268  53.2189  21.2461 0002125  49.4757 310.6420 15.08834205 36949,6917.898,95.438,541.2330000000002,538.293,0.0
